{
    "links": {
        "self": "http://www.neowsapp.com/rest/v1/neo/3759006?api_key=iIulBulltgU6a56xZRHN4H3l9WmuAYTsLGpBGhQ2"
    },
    "id": "3759006",
    "neo_reference_id": "3759006",
    "name": "(2016 RH17)",
    "designation": "2016 RH17",
    "nasa_jpl_url": "http://ssd.jpl.nasa.gov/sbdb.cgi?sstr=3759006",
    "absolute_magnitude_h": 23.5,
    "estimated_diameter": {
        "kilometers": {
            "estimated_diameter_min": 0.0530340723,
            "estimated_diameter_max": 0.1185877909
        },
        "meters": {
            "estimated_diameter_min": 53.0340723319,
            "estimated_diameter_max": 118.5877908577
        },
        "miles": {
            "estimated_diameter_min": 0.0329538346,
            "estimated_diameter_max": 0.0736870142
        },
        "feet": {
            "estimated_diameter_min": 173.9963058693,
            "estimated_diameter_max": 389.0675677576
        }
    },
    "is_potentially_hazardous_asteroid": false,
    "close_approach_data": [
        {
            "close_approach_date": "2014-02-02",
            "close_approach_date_full": "2014-Feb-02 06:50",
            "epoch_date_close_approach": 1391323800000,
            "relative_velocity": {
                "kilometers_per_second": "10.6251286026",
                "kilometers_per_hour": "38250.4629694792",
                "miles_per_hour": "23767.35017123"
            },
            "miss_distance": {
                "astronomical": "0.0660551708",
                "lunar": "25.6954614412",
                "kilometers": "9881712.854166196",
                "miles": "6140211.6421816648"
            },
            "orbiting_body": "Mars"
        },
        {
            "close_approach_date": "2016-09-11",
            "close_approach_date_full": "2016-Sep-11 00:49",
            "epoch_date_close_approach": 1473554940000,
            "relative_velocity": {
                "kilometers_per_second": "14.1107968764",
                "kilometers_per_hour": "50798.8687551476",
                "miles_per_hour": "31564.441532886"
            },
            "miss_distance": {
                "astronomical": "0.0155978602",
                "lunar": "6.0675676178",
                "kilometers": "2333406.662477774",
                "miles": "1449911.6667663212"
            },
            "orbiting_body": "Earth"
        },
        {
            "close_approach_date": "2017-01-02",
            "close_approach_date_full": "2017-Jan-02 16:19",
            "epoch_date_close_approach": 1483373940000,
            "relative_velocity": {
                "kilometers_per_second": "8.2842141844",
                "kilometers_per_hour": "29823.1710636645",
                "miles_per_hour": "18530.9587089753"
            },
            "miss_distance": {
                "astronomical": "0.487930953",
                "lunar": "189.805140717",
                "kilometers": "72993431.27587011",
                "miles": "45356015.008463118"
            },
            "orbiting_body": "Earth"
        }
    ],
    "orbital_data": {
        "orbit_id": "3",
        "orbit_determination_date": "2017-04-06 08:24:09",
        "first_observation_date": "2016-09-05",
        "last_observation_date": "2016-09-09",
        "data_arc_in_days": 4,
        "observations_used": 86,
        "orbit_uncertainty": "8",
        "minimum_orbit_intersection": ".00545692",
        "jupiter_tisserand_invariant": "4.654",
        "epoch_osculation": "2457638.5",
        "eccentricity": ".3010181980689233",
        "semi_major_axis": "1.385170262554144",
        "inclination": "24.23541949121185",
        "ascending_node_longitude": "167.6956619119713",
        "orbital_period": "595.4607853824186",
        "perihelion_distance": ".9682088061014379",
        "perihelion_argument": "210.9706117670197",
        "aphelion_distance": "1.802131719006849",
        "perihelion_time": "2457669.416700559343",
        "mean_anomaly": "341.3085723282088",
        "mean_motion": ".6045738171805884",
        "equinox": "J2000",
        "orbit_class": {
            "orbit_class_type": "APO",
            "orbit_class_description": "Near-Earth asteroid orbits which cross the Earth’s orbit similar to that of 1862 Apollo",
            "orbit_class_range": "a (semi-major axis) > 1.0 AU; q (perihelion) < 1.017 AU"
        }
    },
    "is_sentry_object": false
}